{
  "norad_id": 55942,
  "name": "STARLINK-5917",
  "history": [
    {
      "epoch": "2026-03-28T20:19:25.365504Z",
      "apogee_km": 574.3049134564853,
      "perigee_km": 569.7750661016271,
      "latitude_deg": -9.358686271444296e-06,
      "longitude_deg": 104.87600588721104,
      "height_km": 574.3458048895246,
      "semi_major_axis_km": 6950.176989779056,
      "eccentricity": 0.00032588,
      "inclination_deg": 69.9998,
      "raan_deg": 235.9931,
      "arg_perigee_deg": 273.0842,
      "mean_anomaly_deg": 86.9944,
      "mean_motion_rev_day": 14.98335142
    },
    {
      "epoch": "2026-03-30T12:22:47.069184Z",
      "apogee_km": 574.3086881615409,
      "perigee_km": 569.8099650832455,
      "latitude_deg": -2.9371513480550154e-05,
      "longitude_deg": -141.8176749612616,
      "height_km": 574.5498582221965,
      "semi_major_axis_km": 6950.196326622393,
      "eccentricity": 0.00032364,
      "inclination_deg": 70.0,
      "raan_deg": 231.7849,
      "arg_perigee_deg": 268.3992,
      "mean_anomaly_deg": 91.6796,
      "mean_motion_rev_day": 14.98328889
    },
    {
      "epoch": "2026-03-30T18:47:19.326912Z",
      "apogee_km": 574.3199483252747,
      "perigee_km": 569.7977338992969,
      "latitude_deg": 6.20309312596799e-05,
      "longitude_deg": 121.11134457917399,
      "height_km": 574.5429782054239,
      "semi_major_axis_km": 6950.195841112286,
      "eccentricity": 0.00032533,
      "inclination_deg": 70.0,
      "raan_deg": 231.1115,
      "arg_perigee_deg": 268.5698,
      "mean_anomaly_deg": 91.5089,
      "mean_motion_rev_day": 14.98329046
    },
    {
      "epoch": "2026-03-31T15:37:03.774432Z",
      "apogee_km": 574.3428935919828,
      "perigee_km": 569.7474331455633,
      "latitude_deg": -2.462945184411104e-05,
      "longitude_deg": 165.6323991979091,
      "height_km": 574.5178757558027,
      "semi_major_axis_km": 6950.182163368772,
      "eccentricity": 0.0003306,
      "inclination_deg": 69.9999,
      "raan_deg": 228.9232,
      "arg_perigee_deg": 268.8789,
      "mean_anomaly_deg": 91.1991,
      "mean_motion_rev_day": 14.98333469
    },
    {
      "epoch": "2026-04-01T15:39:04.400928Z",
      "apogee_km": 574.19959646192,
      "perigee_km": 569.9127173227498,
      "latitude_deg": 1.5117299744846576e-05,
      "longitude_deg": 161.61968340483568,
      "height_km": 574.5565312369835,
      "semi_major_axis_km": 6950.193156892335,
      "eccentricity": 0.0003084,
      "inclination_deg": 70.0005,
      "raan_deg": 226.4001,
      "arg_perigee_deg": 268.0538,
      "mean_anomaly_deg": 92.0268,
      "mean_motion_rev_day": 14.98329914
    },
    {
      "epoch": "2026-04-02T18:53:21.829344Z",
      "apogee_km": 573.9656545056687,
      "perigee_km": 570.1488858202665,
      "latitude_deg": -4.053930064837738e-05,
      "longitude_deg": 109.06631375958642,
      "height_km": 574.5081157352186,
      "semi_major_axis_km": 6950.194270162968,
      "eccentricity": 0.00027458,
      "inclination_deg": 70.004,
      "raan_deg": 223.538,
      "arg_perigee_deg": 269.2988,
      "mean_anomaly_deg": 90.7856,
      "mean_motion_rev_day": 14.98329554
    },
    {
      "epoch": "2026-04-03T18:55:22.274400Z",
      "apogee_km": 574.196486509607,
      "perigee_km": 569.9123885075269,
      "latitude_deg": 8.410050651972126e-06,
      "longitude_deg": 105.05245815939698,
      "height_km": 574.5190532634527,
      "semi_major_axis_km": 6950.191437508566,
      "eccentricity": 0.0003082,
      "inclination_deg": 70.0006,
      "raan_deg": 221.013,
      "arg_perigee_deg": 269.0094,
      "mean_anomaly_deg": 91.0712,
      "mean_motion_rev_day": 14.9833047
    },
    {
      "epoch": "2026-04-04T17:21:15.565248Z",
      "apogee_km": 574.1885604050958,
      "perigee_km": 569.9336491253589,
      "latitude_deg": 6.78232657891907e-05,
      "longitude_deg": 125.30260603657466,
      "height_km": 574.4589680772759,
      "semi_major_axis_km": 6950.198104765227,
      "eccentricity": 0.0003061,
      "inclination_deg": 70.0007,
      "raan_deg": 218.6564,
      "arg_perigee_deg": 270.7996,
      "mean_anomaly_deg": 89.2813,
      "mean_motion_rev_day": 14.98328314
    }
  ]
}